STARLINK-1609
1 27621C 21012B   21325.16266829  .00006478  00000-0  43411-3 0  3253
2 27621  53.0551 277.4978 0001771  59.0255  17.4270 15.06383018    14
